{"type": "FeatureCollection", "features": [{"type": "Feature", "properties": {"site_id": "S01", "full_name": "«Проведение геологической съёмки  масштаба 1:50 000 (второго поколения) с общими поисками по листам M-42-112-Г, M-42-113-В, M-42-113-Г, M-42-114-В, M-42-124-Б, M-42-124-Г, M-42-125-А, M-42-125-Б, M-42-125-В, M-42-125-Г, M-42-126-А, M-42-126-В, M-42-137-А, M-42-137-Б, M-42-138-А» (Улытауская область, площадь 5127 кв. км)"}, "geometry": {"type": "Polygon", "coordinates": [[[68.7491, 48.333675, 0], [68.749096, 48.500345, 0], [68.749092, 48.667016, 0], [68.749088, 48.833686, 0], [68.499081, 48.833683, 0], [68.249074, 48.833681, 0], [67.999067, 48.833678, 0], [67.74906, 48.833675, 0], [67.749064, 48.667005, 0], [67.749068, 48.500335, 0], [67.749072, 48.333665, 0], [67.999079, 48.333667, 0], [67.999083, 48.166997, 0], [68.24909, 48.166999, 0], [68.499097, 48.167002, 0], [68.749104, 48.167005, 0], [68.7491, 48.333675, 0]]]}}, {"type": "Feature", "properties": {"site_id": "S02", "full_name": "«Проведение геологической съёмки  масштаба 1:50 000 (второго поколения) с общими поисками по листам M-42-98-А, M-42-98-Б, M-42-98-В, M-42-98-Г, M-42-99-А, M-42-99-В, M-42-110-А, M-42-110-Б, M-42-110-В, M-42-110-Г, M-42-111-А, M-42-111-В, M-42-122-А, M-42-122-Б, M-42-123-А, M-42-123-Б» (Улытауская область, площадь 5429 кв. км)"}, "geometry": {"type": "Polygon", "coordinates": [[[67.249046, 48.83367, 0], [67.249042, 49.00034, 0], [67.249038, 49.167011, 0], [67.249033, 49.333681, 0], [66.999026, 49.333678, 0], [66.749019, 49.333675, 0], [66.499012, 49.333673, 0], [66.499017, 49.167002, 0], [66.499021, 49.000332, 0], [66.499025, 48.833662, 0], [66.499029, 48.666992, 0], [66.499033, 48.500321, 0], [66.74904, 48.500324, 0], [66.999047, 48.500327, 0], [67.249054, 48.500329, 0], [67.499061, 48.500332, 0], [67.499057, 48.667002, 0], [67.24905, 48.667, 0], [67.249046, 48.83367, 0]]]}}, {"type": "Feature", "properties": {"site_id": "S03", "full_name": "«Проведение геологической съёмки  масштаба 1:50 000 (второго поколения) с общими поисками по листам M-42-109-В, M-42-109-Г, M-42-121-А, M-42-121-Б, M-42-121-В, M-42-121-Г, M-42-122-В, M-42-122-Г, M-42-123-В, M-42-133-А, M-42-133-Б, M-42-133-В, M-42-133-Г, M-42-134-А, M-42-134-Б, M-42-134-В, M-42-134-Г, M-42-135-А, M-42-135-В» (Улытауская область, площадь 6517 кв. км)"}, "geometry": {"type": "Polygon", "coordinates": [[[66.499029, 48.666992, 0], [66.499025, 48.833662, 0], [66.249018, 48.833659, 0], [65.999011, 48.833656, 0], [65.999015, 48.666986, 0], [65.99902, 48.500316, 0], [65.999024, 48.333646, 0], [65.999028, 48.166975, 0], [65.999032, 48.000305, 0], [66.249039, 48.000308, 0], [66.499045, 48.000311, 0], [66.749052, 48.000313, 0], [66.999059, 48.000316, 0], [67.249066, 48.000319, 0], [67.249062, 48.166989, 0], [67.249058, 48.333659, 0], [67.249054, 48.500329, 0], [66.999047, 48.500327, 0], [66.74904, 48.500324, 0], [66.499033, 48.500321, 0], [66.499029, 48.666992, 0]]]}}, {"type": "Feature", "properties": {"site_id": "S04", "full_name": "«Проведение геологической съёмки  масштаба 1:50 000 (второго поколения) с общими поисками по листам M-42-138-Г, M-42-139-В, M-42-139-Г, M-42-140-В, L-42-6-Б, L-42-7-А, L-42-7-Б, L-42-7-В, L-42-7-Г, L-42-8-А, L-42-8-В, L-42-19-А, L-42-19-Б, L-42-19-В, L-42-19-Г, L-42-20-А, L-42-20-В» (Карагандинская область область, площадь 5894 кв. км)"}, "geometry": {"type": "Polygon", "coordinates": [[[69.749139, 47.833674, 0], [69.749136, 48.000344, 0], [69.749132, 48.167015, 0], [69.499125, 48.167012, 0], [69.249118, 48.16701, 0], [68.999111, 48.167007, 0], [68.749104, 48.167005, 0], [68.749107, 48.000334, 0], [68.749111, 47.833664, 0], [68.999118, 47.833667, 0], [68.999122, 47.666996, 0], [68.999126, 47.500326, 0], [68.999129, 47.333656, 0], [69.249136, 47.333658, 0], [69.499143, 47.333661, 0], [69.74915, 47.333663, 0], [69.749147, 47.500333, 0], [69.749143, 47.667004, 0], [69.749139, 47.833674, 0]]]}}, {"type": "Feature", "properties": {"site_id": "S05", "full_name": "«Проведение геологической съёмки  масштаба 1:50 000 (второго поколения) с общими поисками по листам L-41-12-А, L-41-12-Б, L-41-12-В, L-41-12-Г, L-41-24-А, L-41-24-Б, L-41-24-В, L-41-24-Г, L-41-36-А, L-41-36-Б, L-41-36-В, L-41-36-Г» (Улытауская область, площадь 4182 кв. км)"}, "geometry": {"type": "Polygon", "coordinates": [[[65.999052, 47.166954, 0], [65.999048, 47.333624, 0], [65.999044, 47.500294, 0], [65.99904, 47.666965, 0], [65.999036, 47.833635, 0], [65.999032, 48.000305, 0], [65.749025, 48.000302, 0], [65.499018, 48.0003, 0], [65.499023, 47.83363, 0], [65.499027, 47.666959, 0], [65.499031, 47.500289, 0], [65.499034, 47.333619, 0], [65.499038, 47.166949, 0], [65.499042, 47.000278, 0], [65.749049, 47.000281, 0], [65.999055, 47.000284, 0], [65.999052, 47.166954, 0]]]}}, {"type": "Feature", "properties": {"site_id": "S06", "full_name": "«Проведение геологической съёмки  масштаба 1:50 000 (второго поколения) с общими поисками по листам M-42-80-Г, M-42-81-В, M-42-82-А, M-42-82-В, M-42-82-Г, M-42-92-Б, M-42-92-Г, M-42-93-А, M-42-93-В, M-42-93-Г, M-42-94-А, M-42-94-Б, M-42-94-В, M-42-105-Б, M-42-106-А» (Улытауская область, площадь 5023 кв. км)"}, "geometry": {"type": "Polygon", "coordinates": [[[70.749118, 50.000398, 0], [70.499111, 50.000396, 0], [70.499115, 49.833725, 0], [70.499119, 49.667055, 0], [70.499123, 49.500385, 0], [70.249115, 49.500382, 0], [70.249111, 49.667053, 0], [70.249107, 49.833723, 0], [69.9991, 49.83372, 0], [69.749093, 49.833718, 0], [69.749097, 49.667048, 0], [69.749101, 49.500377, 0], [69.749105, 49.333707, 0], [69.999112, 49.33371, 0], [70.249119, 49.333712, 0], [70.249123, 49.167042, 0], [70.499131, 49.167044, 0], [70.749138, 49.167047, 0], [70.749134, 49.333717, 0], [70.74913, 49.500387, 0], [70.999137, 49.50039, 0], [70.999134, 49.66706, 0], [70.99913, 49.833731, 0], [70.749122, 49.833728, 0], [70.749118, 50.000398, 0]]]}}, {"type": "Feature", "properties": {"site_id": "S07", "full_name": "«Проведение геологической съёмки  масштаба 1:50 000 (второго поколения) с общими поисками по листам M-42-6-А, M-42-6-Б, M-42-6-В, M-42-6-Г, M-42-7-А, M-42-7-Б, M-42-7-В, M-42-7-Г, M-42-8-А, M-42-8-В, M-42-18-А, M-42-18-Б, M-42-18-В, M-42-18-Г, M-42-19-А, M-42-19-Б, M-42-19-В, M-42-19-Г, M-42-20-А, M-42-20-В» (Акмолинская область, площадь 6419 кв. км)"}, "geometry": {"type": "Polygon", "coordinates": [[[68.749024, 51.33374, 0], [68.999032, 51.333742, 0], [69.249039, 51.333745, 0], [69.499047, 51.333748, 0], [69.749054, 51.33375, 0], [69.74905, 51.500421, 0], [69.749045, 51.667091, 0], [69.749041, 51.833761, 0], [69.749036, 52.000431, 0], [69.499029, 52.000429, 0], [69.249021, 52.000426, 0], [68.999013, 52.000423, 0], [68.749006, 52.000421, 0], [68.498998, 52.000418, 0], [68.499003, 51.833748, 0], [68.499008, 51.667077, 0], [68.499012, 51.500407, 0], [68.499017, 51.333737, 0], [68.749024, 51.33374, 0]]]}}, {"type": "Feature", "properties": {"site_id": "S08", "full_name": "«Проведение геологической съёмки  масштаба 1:50 000 (второго поколения) с общими поисками по листам N-41-75-Б, N-41-75-Г, N-41-76-А, N-41-76-Б, N-41-76-В, N-41-87-Г, N-41-88-А, N-41-88-В, N-41-88-Г, N-41-100-А, N-41-100-Б» (Костанайская область, площадь 3389 кв. км)"}, "geometry": {"type": "Polygon", "coordinates": [[[61.998741, 54.000383, 0], [61.748734, 54.000379, 0], [61.498727, 54.000376, 0], [61.248719, 54.000373, 0], [61.248726, 53.833703, 0], [61.248732, 53.667033, 0], [61.498739, 53.667036, 0], [61.498745, 53.500366, 0], [61.248738, 53.500363, 0], [61.248744, 53.333693, 0], [61.498751, 53.333696, 0], [61.498757, 53.167026, 0], [61.748764, 53.167029, 0], [61.998771, 53.167033, 0], [61.998765, 53.333703, 0], [61.998759, 53.500373, 0], [61.748752, 53.500369, 0], [61.748746, 53.667039, 0], [61.74874, 53.833709, 0], [61.998747, 53.833713, 0], [61.998741, 54.000383, 0]]]}}, {"type": "Feature", "properties": {"site_id": "S09", "full_name": "«Проведение геологической съёмки  масштаба 1:50 000 (второго поколения) с общими поисками по листам N-42-121-А, N-42-121-Б, N-42-121-В, N-42-121-Г, N-42-122-А, N-42-122-Б, N-42-122-В, N-42-122-Г, N-42-133-А, N-42-133-В, N-42-134-Б, N-42-134-Г, N-42-135-А, N-42-135-Б, N-42-135-В, N-42-135-Г, N-42-136-А, N-42-136-В» (Акмолинская и Северо-Казахстанская область, площадь 5700 кв. км)"}, "geometry": {"type": "Polygon", "coordinates": [[[66.998938, 52.500412, 0], [66.998933, 52.667082, 0], [66.748926, 52.667079, 0], [66.498918, 52.667076, 0], [66.248911, 52.667073, 0], [65.998903, 52.667071, 0], [65.998909, 52.5004, 0], [65.998914, 52.33373, 0], [65.998919, 52.16706, 0], [65.998924, 52.00039, 0], [66.248931, 52.000393, 0], [66.248926, 52.167063, 0], [66.248921, 52.333733, 0], [66.498929, 52.333736, 0], [66.748936, 52.333739, 0], [66.748941, 52.167069, 0], [66.748946, 52.000399, 0], [66.998953, 52.000401, 0], [67.248961, 52.000404, 0], [67.498968, 52.000407, 0], [67.748976, 52.00041, 0], [67.748971, 52.16708, 0], [67.748966, 52.33375, 0], [67.498958, 52.333747, 0], [67.248951, 52.333744, 0], [66.998943, 52.333742, 0], [66.998938, 52.500412, 0]]]}}, {"type": "Feature", "properties": {"site_id": "S10", "full_name": "«Проведение геологической съёмки  масштаба 1:50 000 (второго поколения) с общими поисками по листам N-42-74-А, N-42-74-Б, N-42-74-В, N-42-74-Г, N-42-75-А, N-42-75-В, N-42-86-А, N-42-86-Б, N-42-86-В, N-42-86-Г, N-42-87-А, N-42-87-В, N-42-98-А, N-42-98-Б, N-42-99-А» (Северо-Казахстанская область, площадь 4623 кв. км)"}, "geometry": {"type": "Polygon", "coordinates": [[[66.74891, 53.16709, 0], [66.998918, 53.167092, 0], [67.248925, 53.167095, 0], [67.24892, 53.333765, 0], [67.248915, 53.500436, 0], [67.24891, 53.667106, 0], [67.248904, 53.833776, 0], [67.248899, 54.000446, 0], [66.998891, 54.000443, 0], [66.748883, 54.00044, 0], [66.498876, 54.000437, 0], [66.498881, 53.833767, 0], [66.498887, 53.667097, 0], [66.498892, 53.500427, 0], [66.498897, 53.333757, 0], [66.498903, 53.167087, 0], [66.74891, 53.16709, 0]]]}}, {"type": "Feature", "properties": {"site_id": "S11", "full_name": "«Проведение геологической съёмки  масштаба 1:50 000 (второго поколения) с общими поисками по листам N-42-82-Б, N-42-82-Г, N-42-83-А, N-42-83-Б, N-42-83-В, N-42-83-Г, N-42-84-А, N-42-84-Б, N-42-84-В, N-42-84-Г, N-42-96-Б, N-43-73-А, N-43-73-В, N-43-85-А» (Северо-Казахстанская область, площадь 4295 кв. км)"}, "geometry": {"type": "Polygon", "coordinates": [[[72.249069, 53.667159, 0], [72.249064, 53.833829, 0], [72.249059, 54.0005, 0], [71.999051, 54.000497, 0], [71.749043, 54.000495, 0], [71.499035, 54.000492, 0], [71.249026, 54.000489, 0], [70.999018, 54.000487, 0], [70.74901, 54.000484, 0], [70.749015, 53.833814, 0], [70.74902, 53.667144, 0], [70.999028, 53.667146, 0], [71.249036, 53.667149, 0], [71.499044, 53.667152, 0], [71.749052, 53.667154, 0], [71.749057, 53.500484, 0], [71.999065, 53.500486, 0], [72.249074, 53.500489, 0], [72.249069, 53.667159, 0]]]}}, {"type": "Feature", "properties": {"site_id": "S12", "full_name": "«Проведение геологической съёмки  масштаба 1:50 000 (второго поколения) с общими поисками по листам M-40-70-Б, M-40-70-В, M-40-70-Г, M-40-71-А, M-40-71-Б, M-40-71-В, M-40-71-Г, M-40-72-А, M-40-72-Б, M-40-72-В, M-40-72-Г, M-40-82-А, M-40-82-Б, M-40-83-А, M-40-83-Б» (Актюбинская область, площадь 4970 кв. км)"}, "geometry": {"type": "Polygon", "coordinates": [[[59.998809, 50.333617, 0], [59.748803, 50.333614, 0], [59.498796, 50.33361, 0], [59.24879, 50.333607, 0], [58.998784, 50.333604, 0], [58.748777, 50.333601, 0], [58.748783, 50.166931, 0], [58.498776, 50.166928, 0], [58.498781, 50.000258, 0], [58.498787, 49.833588, 0], [58.748793, 49.833591, 0], [58.998799, 49.833594, 0], [59.248805, 49.833597, 0], [59.498812, 49.8336, 0], [59.498807, 50.00027, 0], [59.748813, 50.000273, 0], [59.998819, 50.000277, 0], [59.998814, 50.166947, 0], [59.998809, 50.333617, 0]]]}}, {"type": "Feature", "properties": {"site_id": "S14", "full_name": "«Проведение геологической съёмки  масштаба 1:50 000 (второго поколения) с общими поисками по листам M-44-110-Б, M-44-110-Г, M-44-111-А, M-44-111-Б, M-44-111-В, M-44-111-Г, M-44-112-В, M-44-112-Г, M-44-122-А, M-44-122-Б, M-44-122-В, M-44-122-Г, M-44-123-А, M-44-123-В, M-44-124-Б, M-44-124-Г» (область Абай, площадь 5454 кв. км)"}, "geometry": {"type": "Polygon", "coordinates": [[[79.499408, 49.000453, 0], [79.2494, 49.000451, 0], [78.999392, 49.000449, 0], [78.749384, 49.000447, 0], [78.749387, 48.833777, 0], [78.74939, 48.667106, 0], [78.499383, 48.667105, 0], [78.499386, 48.500434, 0], [78.499389, 48.333764, 0], [78.749396, 48.333766, 0], [78.999404, 48.333767, 0], [79.249412, 48.333769, 0], [79.249409, 48.50044, 0], [79.249406, 48.66711, 0], [79.499414, 48.667112, 0], [79.749422, 48.667114, 0], [79.749425, 48.500444, 0], [79.749427, 48.333773, 0], [79.999435, 48.333775, 0], [79.999432, 48.500446, 0], [79.99943, 48.667116, 0], [79.999427, 48.833787, 0], [79.749419, 48.833785, 0], [79.499411, 48.833783, 0], [79.499408, 49.000453, 0]]]}}, {"type": "Feature", "properties": {"site_id": "S15", "full_name": "«Проведение геологической съёмки  масштаба 1:50 000 (второго поколения) с общими поисками по листам M-43-48-Г, M-43-59-Б, M-43-60-А, M-43-60-Б, M-43-60-Г, M-43-72-Б, M-44-37-В, M-44-37-Г, M-44-49-А, M-44-49-Б, M-44-49-В, M-44-61-А, M-44-61-Б» (область Абай, площадь 4271 кв. км)"}, "geometry": {"type": "Polygon", "coordinates": [[[78.24934, 50.500477, 0], [78.499348, 50.50048, 0], [78.499345, 50.66715, 0], [78.499341, 50.83382, 0], [78.249333, 50.833818, 0], [77.999325, 50.833816, 0], [77.749317, 50.833814, 0], [77.749321, 50.667144, 0], [77.499312, 50.667142, 0], [77.249304, 50.66714, 0], [77.249308, 50.500469, 0], [77.499316, 50.500471, 0], [77.749324, 50.500473, 0], [77.749327, 50.333803, 0], [77.749331, 50.167133, 0], [77.999339, 50.167135, 0], [78.249347, 50.167137, 0], [78.499355, 50.167139, 0], [78.499351, 50.333809, 0], [78.249343, 50.333807, 0], [78.24934, 50.500477, 0]]]}}, {"type": "Feature", "properties": {"site_id": "S16", "full_name": "«Проведение геологической съёмки  масштаба 1:50 000 (второго поколения) с общими поисками по листам M-43-83-Г, M-43-84-В, M-43-84-Г, M-43-95-А, M-43-95-Б, M-43-95-В, M-43-95-Г, M-43-96-А, M-43-96-Б, M-43-96-В, M-43-96-Г, M-43-108-А, M-43-108-Б, M-43-108-В, M-43-108-Г, M-44-61-Г, M-44-73-Б, M-44-73-Г, M-44-85-А, M-44-85-Б, M-44-85-В, M-44-85-Г» (область Абай, площадь 7372 кв. км)"}, "geometry": {"type": "Polygon", "coordinates": [[[78.499364, 49.667127, 0], [78.499361, 49.833798, 0], [78.499358, 50.000468, 0], [78.499355, 50.167139, 0], [78.249347, 50.167137, 0], [78.24935, 50.000466, 0], [78.249353, 49.833796, 0], [78.249356, 49.667125, 0], [77.999348, 49.667123, 0], [77.999345, 49.833794, 0], [77.749337, 49.833792, 0], [77.499329, 49.83379, 0], [77.249321, 49.833788, 0], [77.249325, 49.667117, 0], [76.999317, 49.667115, 0], [76.99932, 49.500445, 0], [76.999323, 49.333774, 0], [77.249331, 49.333776, 0], [77.499339, 49.333778, 0], [77.499342, 49.167108, 0], [77.499345, 49.000437, 0], [77.749353, 49.000439, 0], [77.999361, 49.000441, 0], [77.999358, 49.167112, 0], [77.999355, 49.333782, 0], [78.249363, 49.333784, 0], [78.49937, 49.333786, 0], [78.499367, 49.500457, 0], [78.499364, 49.667127, 0]]]}}, {"type": "Feature", "properties": {"site_id": "S17", "full_name": "«Проведение геологической съёмки  масштаба 1:50 000 (второго поколения) с общими поисками по листам M-44-59-А, M-44-59-Б, M-44-59-В, M-44-59-Г, M-44-71-А, M-44-71-Б, M-44-71-В, M-44-71-Г, M-44-72-А, M-44-72-Б, M-44-72-В, M-44-72-Г» (Восточно-Казахстанская область, площадь 3962 кв. км)"}, "geometry": {"type": "Polygon", "coordinates": [[[83.499513, 50.500516, 0], [83.49951, 50.667187, 0], [83.249502, 50.667185, 0], [82.999493, 50.667183, 0], [82.999496, 50.500513, 0], [82.999499, 50.333842, 0], [82.999502, 50.167172, 0], [82.999504, 50.000501, 0], [83.249513, 50.000503, 0], [83.499521, 50.000505, 0], [83.749529, 50.000506, 0], [83.999538, 50.000508, 0], [83.999535, 50.167178, 0], [83.999532, 50.333849, 0], [83.749524, 50.333847, 0], [83.499516, 50.333846, 0], [83.499513, 50.500516, 0]]]}}, {"type": "Feature", "properties": {"site_id": "S18", "full_name": "«Проведение геологической съёмки  масштаба 1:50 000 (второго поколения) с общими поисками по листам M-44-50-А, M-44-50-Б, M-44-50-В, M-44-50-Г, M-44-51-А, M-44-51-Б, M-44-51-В, M-44-51-Г, M-44-63-А, M-44-63-Б, M-44-63-В, M-44-63-Г» (область Абай, площадь 3953 кв. км)"}, "geometry": {"type": "Polygon", "coordinates": [[[79.499384, 50.333817, 0], [79.499381, 50.500487, 0], [79.499377, 50.667158, 0], [79.249369, 50.667156, 0], [78.999361, 50.667154, 0], [78.749353, 50.667152, 0], [78.499345, 50.66715, 0], [78.499348, 50.50048, 0], [78.499351, 50.333809, 0], [78.749359, 50.333811, 0], [78.999368, 50.333813, 0], [78.999371, 50.167143, 0], [78.999374, 50.000472, 0], [79.249382, 50.000474, 0], [79.49939, 50.000476, 0], [79.499387, 50.167147, 0], [79.499384, 50.333817, 0]]]}}, {"type": "Feature", "properties": {"site_id": "S19", "full_name": "«Проведение геологической съёмки  масштаба 1:50 000 (второго поколения) с общими поисками по листам K-42-19-В, K-42-19-Г, K-42-31-А, K-42-31-Б, K-42-32-А, K-42-32-В, K-42-32-Г, K-42-44-А, K-42-44-Б» (Туркестанская область, площадь 3394 кв. км)"}, "geometry": {"type": "Polygon", "coordinates": [[[69.499219, 43.500242, 0], [69.249212, 43.500239, 0], [68.999206, 43.500237, 0], [68.999209, 43.333567, 0], [68.999211, 43.166896, 0], [69.249218, 43.166899, 0], [69.499224, 43.166901, 0], [69.499227, 43.00023, 0], [69.49923, 42.83356, 0], [69.749237, 42.833562, 0], [69.999243, 42.833565, 0], [69.99924, 43.000235, 0], [69.999237, 43.166906, 0], [69.749231, 43.166903, 0], [69.749228, 43.333574, 0], [69.499221, 43.333571, 0], [69.499219, 43.500242, 0]]]}}, {"type": "Feature", "properties": {"site_id": "S20", "full_name": "«Проведение геологической съёмки  масштаба 1:50 000 (второго поколения) с общими поисками по листам K-44-1-В, K-44-1-Г, K-44-2-В, K-44-2-Г, K-44-13-А, K-44-13-Б, K-44-13-В, K-44-13-Г, K-44-14-А, K-44-14-В, K-44-14-Г, K-44-26-А, K-44-26-Б» (Алматинская область, площадь 4870 кв. км)"}, "geometry": {"type": "Polygon", "coordinates": [[[78.749469, 43.66699, 0], [78.999476, 43.666992, 0], [78.999474, 43.833662, 0], [78.749467, 43.833661, 0], [78.499459, 43.833659, 0], [78.249452, 43.833657, 0], [77.999445, 43.833655, 0], [77.999448, 43.666984, 0], [77.99945, 43.500314, 0], [77.999452, 43.333643, 0], [78.249459, 43.333645, 0], [78.499466, 43.333647, 0], [78.499469, 43.166976, 0], [78.749476, 43.166978, 0], [78.999483, 43.16698, 0], [78.999481, 43.333651, 0], [78.999478, 43.500321, 0], [78.749471, 43.500319, 0], [78.749469, 43.66699, 0]]]}}]}